HONGYAN 1 (CHONGQING)   
1 43914U 18112F   23039.20766216 -.00000071  00000+0  10000-3 0  9993
2 43914  50.0127  62.2860 0006517 131.0214 229.1216 13.43723147201936
YUNHAI 2-06             
1 43915U 18112G   23039.22488650  .00000232  00000+0  15768-3 0  9993
2 43915  50.0151  22.6981 0007391 347.2322  12.8373 14.27883829213380
CHINASAT 2D (ZX 2D)     
1 43920U 19001A   23038.81531079 -.00000331  00000+0  00000+0 0  9995
2 43920   0.0137 161.2342 0000181  73.7467 326.1773  1.00274810 41797
IRIDIUM 180             
1 43922U 19002A   23039.27984846  .00000553  00000+0  19053-3 0  9990
2 43922  86.4016 145.5532 0001888 106.7480 253.3923 14.34220302213467
IRIDIUM 176             
1 43923U 19002B   23038.83715132  .00001824  00000+0  28526-3 0  9999
2 43923  86.6149 145.7795 0002177  91.6336 268.5131 14.72271192218968
IRIDIUM 168             
1 43924U 19002C   23038.78513785  .00000491  00000+0  16821-3 0  9998
2 43924  86.4018 145.8023 0002080 103.6671 256.4756 14.34219778213331
IRIDIUM 173             
1 43925U 19002D   23038.84222038  .00000499  00000+0  17126-3 0  9991
2 43925  86.4014 145.7174 0002008 103.4156 256.7264 14.34220538213333
IRIDIUM 169             
1 43926U 19002E   23039.09689336  .00000616  00000+0  19487-3 0  9991
2 43926  86.4280 177.1647 0005790  70.1651 290.0171 14.38615560214093
IRIDIUM 172             
1 43927U 19002F   23038.83586586  .00000447  00000+0  15268-3 0  9991
2 43927  86.4016 145.7244 0001954 106.6210 253.5200 14.34220374213333
IRIDIUM 175             
1 43928U 19002G   23038.76301944  .00001766  00000+0  27604-3 0  9999
2 43928  86.6152 145.6477 0002301  94.1457 266.0023 14.72268960218944
IRIDIUM 171             
1 43929U 19002H   23038.81684692  .00000470  00000+0  16080-3 0  9997
2 43929  86.4024 145.9024 0002090 103.0811 257.0618 14.34219904213320
IRIDIUM 170             
1 43930U 19002J   23038.77538157  .00001771  00000+0  27677-3 0  9997
2 43930  86.6150 145.8104 0002245  95.9288 264.2185 14.72268239218962
IRIDIUM 167             
1 43931U 19002K   23038.81049619  .00000447  00000+0  15267-3 0  9994
2 43931  86.4016 145.7465 0001922 104.4899 255.6510 14.34218395213323
RAPIS-1                 
1 43932U 19003A   23038.96773640  .00019850  00000+0  10736-2 0  9993
2 43932  97.1777  39.4274 0003529  35.6245 324.5222 15.14690576223779
RISESAT                 
1 43934U 19003C   23038.36802773  .00190169  00000+0  28012-2 0  9998
2 43934  97.1076  65.1138 0010543  69.4513  55.4557 15.54695952225720
MICRODRAGON             
1 43935U 19003D   23038.87992234  .00016774  00000+0  58409-3 0  9990
2 43935  97.1167  63.5709 0017192  61.0995 299.1969 15.29597117225637
NEXUS (FO-99)           
1 43937U 19003F   23038.97768965  .00041949  00000+0  10690-2 0  9996
2 43937  97.1056  68.9205 0017719  34.0589 326.1791 15.39263379226085
ALE-1                   
1 43938U 19003G   23038.71794398  .00045853  00000+0  54055-3 0  9990
2 43938  97.1066  81.6258 0009326 359.7071   0.4180 15.61191317226806
AOBA VELOX-IV           
1 43940U 19003J   23038.61288258  .00200672  00000+0  22935-2 0  9998
2 43940  97.0975  74.8070 0009745  20.3421 339.8224 15.61462118226446
JILIN-01-09             
1 43943U 19005B   23039.06580154  .00006219  00000+0  33119-3 0  9991
2 43943  97.4969 135.2557 0012175 227.2787 257.2218 15.15514258223548
XIAOXIANG 3             
1 43944U 19005C   23039.13879837  .00037278  00000+0  14722-2 0  9996
2 43944  97.4976 139.4224 0009534 213.9489 242.7931 15.25378012223818
JILIN-01-10             
1 43946U 19005E   23039.15713163  .00005752  00000+0  30623-3 0  9990
2 43946  97.4963 135.3887 0017693 219.1577 228.4823 15.15484579223497
HELLAS-SAT 4 & SGS-1    
1 44034U 19007A   23038.81614365  .00000159  00000+0  00000+0 0  9995
2 44034   0.0631 123.3920 0002875  39.9959 307.0514  1.00268894 15074
GSAT-31                 
1 44035U 19007B   23038.88035528  .00000132  00000+0  00000+0 0  9992
2 44035   0.0412  99.3760 0004642 199.4573 203.6864  1.00270956 14692
2018-092C               
1 44041U 18092C   23039.06882432  .00041549  00000+0  58537-3 0  9996
2 44041  51.6380 345.6641 0002152 220.9666 139.1173 15.56201986225195
2018-092D               
1 44042U 18092D   23039.20176603  .00047009  00000+0  65295-3 0  9995
2 44042  51.6374 346.5257 0002224 228.6095 131.4709 15.56530661238158
EGYPTSAT-A (MISRSAT-A)  
1 44047U 19008A   23039.07446130  .00001356  00000+0  22280-3 0  9990
2 44047  98.0135 105.4335 0001264  83.3817 276.7559 14.72214794212974
NUSANTARA SATU          
1 44048U 19009A   23038.83741191 -.00000229  00000+0  00000+0 0  9991
2 44048   0.0236 128.3272 0000765 342.7869 114.0323  1.00270227 14476
ONEWEB-0012             
1 44057U 19010A   23039.18166451  .00000154  00000+0  36904-3 0  9994
2 44057  87.9051 112.7363 0001811  66.7394 293.3927 13.16593175190401
ONEWEB-0010             
1 44058U 19010B   23038.67501029 -.00000019  00000+0 -83224-4 0  9992
2 44058  87.9048 112.8349 0001094  90.4394 269.6862 13.16592013190358
ONEWEB-0008             
1 44059U 19010C   23038.70035331 -.00000041  00000+0 -14207-3 0  9994
2 44059  87.9055 112.8090 0002282 104.8824 255.2560 13.16592378190471
ONEWEB-0007             
1 44060U 19010D   23038.82705474  .00000018  00000+0  13386-4 0  9991
2 44060  87.9106 143.1613 0001561  87.4643 272.6666 13.15547088190266
ONEWEB-0006             
1 44061U 19010E   23038.81435072  .00000108  00000+0  25296-3 0  9997
2 44061  87.9020 143.1837 0001412  95.5662 264.5629 13.15553121190316
ONEWEB-0011             
1 44062U 19010F   23039.18194458  .00003546  00000+0  93785-2 0  9995
2 44062  87.9003 143.1274 0002049  98.6088 261.5274 13.15578204190385
S5                      
1 44065U 19009D   23038.16344696 -.00000126  00000+0  00000+0 0  9991
2 44065   3.4176  85.0767 0001743  57.1616  56.5219  0.99341274 14266
CHINASAT 6C (ZX 6C)     
1 44067U 19012A   23038.97766023 -.00000330  00000+0  00000+0 0  9995
2 44067   0.0500 269.5565 0004837  31.7957 318.4165  1.00273632 14445
WGS 10 (USA 291)        
1 44071U 19014A   23038.83790542  .00000053  00000+0  00000+0 0  9991
2 44071   0.0132 106.1359 0000481 226.5465 166.9176  1.00272283 14345
PRISMA                  
1 44072U 19015A   23039.19445295  .00000654  00000+0  85660-4 0  9992
2 44072  97.8648 115.5113 0001406  83.2067 276.9411 14.83655665210412
TIANLIAN 2-01           
1 44076U 19017A   23034.76021485 -.00000133  00000+0  00000+0 0  9990
2 44076   0.1677  95.4831 0030471  64.5905 327.2743  1.00272033 14289
EMISAT                  
1 44078U 19018A   23039.15004545  .00000255  00000+0  87647-4 0  9990
2 44078  98.4076 101.5068 0017754 322.2144  37.7824 14.43717699203290
FLOCK 4A-2              
1 44080U 19018C   23039.09895378  .00052656  00000+0  10990-2 0  9995
2 44080  97.2674 102.4638 0005801 340.1129  19.9893 15.45350483214892
ASTROCAST 0.2           
1 44083U 19018F   23039.14669586  .00035550  00000+0  10450-2 0  9999
2 44083  97.2894  99.1324 0007161   6.6109 353.5228 15.34998968214529
LEMUR-2-JOHANLORAN      
1 44084U 19018G   23039.12157776  .00330601  00000+0  25470-2 0  9994
2 44084  97.2812 107.6099 0005184 309.1480  50.9322 15.70986215215199
LEMUR-2-BEAUDACIOUS     
1 44085U 19018H   23039.17278009  .00079099  00000+0  15896-2 0  9995
2 44085  97.2792 103.4946 0007432 347.0491  13.0567 15.46333709214932
LEMUR-2-ELHAM           
1 44086U 19018J   23039.11913313  .00102843  00000+0  16338-2 0  9990
2 44086  97.2878 106.0590 0007580 328.1424  31.9369 15.52944794215076
LEMUR-2-VICTOR-ANDREW   
1 44087U 19018K   23038.69835638  .00323863  00000+0  24812-2 0  9999
2 44087  97.2861 108.0056 0004749 303.5107  56.5702 15.71141970215178
FLOCK 4A-17             
1 44088U 19018L   23039.12756319  .00366959  00000+0  35985-2 0  9993
2 44088  97.2731 103.9224 0006971 312.2296  47.8371 15.64900453214963
FLOCK 4A-19             
1 44090U 19018N   23038.68999396  .00474290  00000+0  40219-2 0  9994
2 44090  97.2682 103.6580 0007356 315.2068  44.8599 15.68212043214921
FLOCK 4A-6              
1 44094U 19018S   23038.89513859  .00038815  00000+0  87117-3 0  9995
2 44094  97.2773 102.8002 0006963 356.9700   3.1505 15.43258979214874
FLOCK 4A-5              
1 44095U 19018T   23039.12081241  .00364882  00000+0  38925-2 0  9996
2 44095  97.2716 103.2417 0005874 316.1533  43.9259 15.62755720214919
FLOCK 4A-11             
1 44096U 19018U   23039.10862135  .00042319  00000+0  93295-3 0  9994
2 44096  97.2768 103.1525 0006884 358.8690   1.2542 15.43774632214908
FLOCK 4A-9              
1 44098U 19018W   23039.12770844  .00093271  00000+0  16395-2 0  9991
2 44098  97.2796 103.7955 0006357   2.1063 358.0214 15.50143565214948
AISTECHSAT-3            
1 44103U 19018AB  23038.89230778  .00027860  00000+0  86184-3 0  9993
2 44103  97.2753  98.8025 0010836  24.3843 335.7910 15.33399251214647
AIS & APRS & ARIS & R/B 
1 44104U 19018AC  23039.16088261  .00022188  00000+0  52564-3 0  9996
2 44104  97.3795 128.7194 0046450   7.7811 352.4145 15.40623153215811
BLUEWALKER 1            
1 44105U 19018AD  23038.79665506  .00039160  00000+0  77108-3 0  9997
2 44105  97.3966 132.9645 0040787   6.2417 353.9332 15.46209247215918
M6P                     
1 44109U 19018AF  23039.18075565  .00064463  00000+0  10052-2 0  9993
2 44109  97.3784 132.3081 0034736 351.5552   8.5112 15.52932726215844
O3B FM20                
1 44112U 19020A   23038.28310664 -.00000019  00000+0  00000+0 0  9999
2 44112   0.0524   4.3467 0003418 314.1474  41.4746  5.00115630 70249
O3B FM19                
1 44113U 19020B   23038.90966918 -.00000018  00000+0  00000+0 0  9997
2 44113   0.0735   7.0658 0003064 339.5024  13.4185  5.00115197 70340
O3B FM17                
1 44114U 19020C   23038.59025670 -.00000018  00000+0  00000+0 0  9994
2 44114   0.0399  23.7351 0003154 292.1630  44.0715  5.00115836 70214
